{
    "links": {
        "self": "http://www.neowsapp.com/rest/v1/neo/3749023?api_key=iIulBulltgU6a56xZRHN4H3l9WmuAYTsLGpBGhQ2"
    },
    "id": "3749023",
    "neo_reference_id": "3749023",
    "name": "(2016 FH39)",
    "designation": "2016 FH39",
    "nasa_jpl_url": "http://ssd.jpl.nasa.gov/sbdb.cgi?sstr=3749023",
    "absolute_magnitude_h": 24.3,
    "estimated_diameter": {
        "kilometers": {
            "estimated_diameter_min": 0.0366906138,
            "estimated_diameter_max": 0.0820427065
        },
        "meters": {
            "estimated_diameter_min": 36.6906137531,
            "estimated_diameter_max": 82.0427064882
        },
        "miles": {
            "estimated_diameter_min": 0.0227984834,
            "estimated_diameter_max": 0.0509789586
        },
        "feet": {
            "estimated_diameter_min": 120.3760332259,
            "estimated_diameter_max": 269.1689931548
        }
    },
    "is_potentially_hazardous_asteroid": false,
    "close_approach_data": [
        {
            "close_approach_date": "2016-03-07",
            "close_approach_date_full": "2016-Mar-07 11:09",
            "epoch_date_close_approach": 1457348940000,
            "relative_velocity": {
                "kilometers_per_second": "2.9102531862",
                "kilometers_per_hour": "10476.9114702754",
                "miles_per_hour": "6509.9453521831"
            },
            "miss_distance": {
                "astronomical": "0.2335777497",
                "lunar": "90.8617446333",
                "kilometers": "34942733.834513139",
                "miles": "21712407.9870297582"
            },
            "orbiting_body": "Earth"
        }
    ],
    "orbital_data": {
        "orbit_id": "3",
        "orbit_determination_date": "2017-04-06 08:26:58",
        "first_observation_date": "2016-03-30",
        "last_observation_date": "2016-04-04",
        "data_arc_in_days": 5,
        "observations_used": 13,
        "orbit_uncertainty": "8",
        "minimum_orbit_intersection": ".116369",
        "jupiter_tisserand_invariant": "5.109",
        "epoch_osculation": "2457479.5",
        "eccentricity": ".1310117998213401",
        "semi_major_axis": "1.257841067698509",
        "inclination": "3.763225462075887",
        "ascending_node_longitude": "311.5026528247064",
        "orbital_period": "515.2726389292683",
        "perihelion_distance": "1.093049045530131",
        "perihelion_argument": "141.9429636901264",
        "aphelion_distance": "1.422633089866886",
        "perihelion_time": "2457363.493111270420",
        "mean_anomaly": "81.04928689679863",
        "mean_motion": ".6986592588111735",
        "equinox": "J2000",
        "orbit_class": {
            "orbit_class_type": "AMO",
            "orbit_class_description": "Near-Earth asteroid orbits similar to that of 1221 Amor",
            "orbit_class_range": "1.017 AU < q (perihelion) < 1.3 AU"
        }
    },
    "is_sentry_object": false
}